{"type": "FeatureCollection", "features": [ {"type": "Feature", "properties": {"norad_id": 33492, "name": "GOSAT (IBUKI)", "group": "resource", "lat": -51.588139532809194, "lon": -84.99071674568813, "alt_km": 676.3256125123253, "timestamp": "2025-12-22T20:43:45.499515+00:00", "meta": {"OBJECT_NAME": "GOSAT (IBUKI)", "OBJECT_ID": "2009-002A", "EPOCH": "2025-12-22T13:07:43.819680", "MEAN_MOTION": 14.67543127, "ECCENTRICITY": 9.816e-05, "INCLINATION": 98.0771, "RA_OF_ASC_NODE": 105.014, "ARG_OF_PERICENTER": 101.8902, "MEAN_ANOMALY": 258.2412, "EPHEMERIS_TYPE": 0, "CLASSIFICATION_TYPE": "U", "NORAD_CAT_ID": 33492, "ELEMENT_SET_NO": 999, "REV_AT_EPOCH": 90555, "BSTAR": 0.00014079897, "MEAN_MOTION_DOT": 7.51e-06, "MEAN_MOTION_DDOT": 0}, "tle": {"line1": "1 33492U 09002A   25356.54703495  .00000751  00000+0  14080-3 0  9998", "line2": "2 33492  98.0771 105.0140 0000981 101.8902 258.2412 14.67543127905553"}}, "geometry": {"type": "Point", "coordinates": [-84.99071674568813, -51.588139532809194]}}, {"type": "Feature", "properties": {"norad_id": 35681, "name": "DEIMOS-1", "group": "resource", "lat": -39.36354384180344, "lon": -29.38921432296711, "alt_km": 653.3984821624636, "timestamp": "2025-12-22T20:43:45.499526+00:00", "meta": {"OBJECT_NAME": "DEIMOS-1", "OBJECT_ID": "2009-041A", "EPOCH": "2025-12-22T13:13:25.798656", "MEAN_MOTION": 14.74966388, "ECCENTRICITY": 0.00025403, "INCLINATION": 97.7149, "RA_OF_ASC_NODE": 156.6976, "ARG_OF_PERICENTER": 64.3499, "MEAN_ANOMALY": 295.7973, "EPHEMERIS_TYPE": 0, "CLASSIFICATION_TYPE": "U", "NORAD_CAT_ID": 35681, "ELEMENT_SET_NO": 999, "REV_AT_EPOCH": 88084, "BSTAR": 0.00010938921, "MEAN_MOTION_DOT": 6.88e-06, "MEAN_MOTION_DDOT": 0}, "tle": {"line1": "1 35681U 09041A   25356.55099304  .00000688  00000+0  10939-3 0  9999", "line2": "2 35681  97.7149 156.6976 0002540  64.3499 295.7973 14.74966388880844"}}, "geometry": {"type": "Point", "coordinates": [-29.38921432296711, -39.36354384180344]}}, {"type": "Feature", "properties": {"norad_id": 35682, "name": "DUBAISAT-1", "group": "resource", "lat": 37.23818945580977, "lon": -46.4846398396438, "alt_km": 648.3243248835561, "timestamp": "2025-12-22T20:43:45.499537+00:00", "meta": {"OBJECT_NAME": "DUBAISAT-1", "OBJECT_ID": "2009-041B", "EPOCH": "2025-12-22T08:41:09.614112", "MEAN_MOTION": 14.74629453, "ECCENTRICITY": 0.00092191, "INCLINATION": 97.9798, "RA_OF_ASC_NODE": 126.9004, "ARG_OF_PERICENTER": 279.9226, "MEAN_ANOMALY": 80.0942, "EPHEMERIS_TYPE": 0, "CLASSIFICATION_TYPE": "U", "NORAD_CAT_ID": 35682, "ELEMENT_SET_NO": 999, "REV_AT_EPOCH": 87903, "BSTAR": 0.00018957661, "MEAN_MOTION_DOT": 1.214e-05, "MEAN_MOTION_DDOT": 0}, "tle": {"line1": "1 35682U 09041B   25356.36191683  .00001214  00000+0  18958-3 0  9997", "line2": "2 35682  97.9798 126.9004 0009219 279.9226  80.0942 14.74629453879030"}}, "geometry": {"type": "Point", "coordinates": [-46.4846398396438, 37.23818945580977]}}, {"type": "Feature", "properties": {"norad_id": 35931, "name": "OCEANSAT-2", "group": "resource", "lat": 67.77592013075693, "lon": -162.83969871872227, "alt_km": 888.9231085030779, "timestamp": "2025-12-22T20:43:45.499547+00:00", "meta": {"OBJECT_NAME": "OCEANSAT-2", "OBJECT_ID": "2009-051A", "EPOCH": "2025-12-22T13:20:26.513088", "MEAN_MOTION": 13.99622915, "ECCENTRICITY": 0.00159688, "INCLINATION": 98.2217, "RA_OF_ASC_NODE": 356.1604, "ARG_OF_PERICENTER": 19.3059, "MEAN_ANOMALY": 340.871, "EPHEMERIS_TYPE": 0, "CLASSIFICATION_TYPE": "U", "NORAD_CAT_ID": 35931, "ELEMENT_SET_NO": 999, "REV_AT_EPOCH": 85462, "BSTAR": -3.5618761e-05, "MEAN_MOTION_DOT": -9e-07, "MEAN_MOTION_DDOT": 0}, "tle": {"line1": "1 35931U 09051A   25356.55586242 -.00000090  00000+0 -35619-4 0  9992", "line2": "2 35931  98.2217 356.1604 0015968  19.3059 340.8710 13.99622915854628"}}, "geometry": {"type": "Point", "coordinates": [-162.83969871872227, 67.77592013075693]}}, {"type": "Feature", "properties": {"norad_id": 35946, "name": "WORLDVIEW-2 (WV-2)", "group": "resource", "lat": 1.003491084609561, "lon": -112.04104430742255, "alt_km": 771.1886140842607, "timestamp": "2025-12-22T20:43:45.499557+00:00", "meta": {"OBJECT_NAME": "WORLDVIEW-2 (WV-2)", "OBJECT_ID": "2009-055A", "EPOCH": "2025-12-22T13:13:09.485472", "MEAN_MOTION": 14.37728183, "ECCENTRICITY": 0.00048332, "INCLINATION": 98.4776, "RA_OF_ASC_NODE": 67.5007, "ARG_OF_PERICENTER": 46.6608, "MEAN_ANOMALY": 313.4981, "EPHEMERIS_TYPE": 0, "CLASSIFICATION_TYPE": "U", "NORAD_CAT_ID": 35946, "ELEMENT_SET_NO": 999, "REV_AT_EPOCH": 85026, "BSTAR": 7.0055198e-05, "MEAN_MOTION_DOT": 1.67e-06, "MEAN_MOTION_DDOT": 0}, "tle": {"line1": "1 35946U 09055A   25356.55080423  .00000167  00000+0  70055-4 0  9998", "line2": "2 35946  98.4776  67.5007 0004833  46.6608 313.4981 14.37728183850267"}}, "geometry": {"type": "Point", "coordinates": [-112.04104430742255, 1.003491084609561]}}, {"type": "Feature", "properties": {"norad_id": 36036, "name": "SMOS", "group": "resource", "lat": -70.42616380183257, "lon": -153.562693539369, "alt_km": 767.2728189588279, "timestamp": "2025-12-22T20:43:45.499568+00:00", "meta": {"OBJECT_NAME": "SMOS", "OBJECT_ID": "2009-059A", "EPOCH": "2025-12-22T11:03:25.345728", "MEAN_MOTION": 14.39749658, "ECCENTRICITY": 0.00010588, "INCLINATION": 98.438, "RA_OF_ASC_NODE": 181.3652, "ARG_OF_PERICENTER": 83.272, "MEAN_ANOMALY": 276.8589, "EPHEMERIS_TYPE": 0, "CLASSIFICATION_TYPE": "U", "NORAD_CAT_ID": 36036, "ELEMENT_SET_NO": 999, "REV_AT_EPOCH": 84802, "BSTAR": 0.00013199623, "MEAN_MOTION_DOT": 3.7e-06, "MEAN_MOTION_DDOT": 0}, "tle": {"line1": "1 36036U 09059A   25356.46071002  .00000370  00000+0  13200-3 0  9990", "line2": "2 36036  98.4380 181.3652 0001058  83.2720 276.8589 14.39749658848027"}}, "geometry": {"type": "Point", "coordinates": [-153.562693539369, -70.42616380183257]}}, {"type": "Feature", "properties": {"norad_id": 36110, "name": "YAOGAN-7", "group": "resource", "lat": 54.39259501048051, "lon": -132.7844361897483, "alt_km": 647.3788422318476, "timestamp": "2025-12-22T20:43:45.499578+00:00", "meta": {"OBJECT_NAME": "YAOGAN-7", "OBJECT_ID": "2009-069A", "EPOCH": "2025-12-22T04:13:43.452768", "MEAN_MOTION": 14.77745547, "ECCENTRICITY": 0.00233887, "INCLINATION": 98.0296, "RA_OF_ASC_NODE": 237.8993, "ARG_OF_PERICENTER": 249.0784, "MEAN_ANOMALY": 110.7922, "EPHEMERIS_TYPE": 0, "CLASSIFICATION_TYPE": "U", "NORAD_CAT_ID": 36110, "ELEMENT_SET_NO": 999, "REV_AT_EPOCH": 86348, "BSTAR": 8.7982108e-05, "MEAN_MOTION_DOT": 5.8e-06, "MEAN_MOTION_DDOT": 0}, "tle": {"line1": "1 36110U 09069A   25356.17619737  .00000580  00000+0  87982-4 0  9997", "line2": "2 36110  98.0296 237.8993 0023388 249.0784 110.7922 14.77745547863488"}}, "geometry": {"type": "Point", "coordinates": [-132.7844361897483, 54.39259501048051]}}, {"type": "Feature", "properties": {"norad_id": 36605, "name": "TANDEM-X", "group": "resource", "lat": 7.32378175152488, "lon": 1.1329289981759447, "alt_km": 510.046010251137, "timestamp": "2025-12-22T20:43:45.499588+00:00", "meta": {"OBJECT_NAME": "TANDEM-X", "OBJECT_ID": "2010-030A", "EPOCH": "2025-12-22T14:22:24.829536", "MEAN_MOTION": 15.19158129, "ECCENTRICITY": 0.0001799, "INCLINATION": 97.4444, "RA_OF_ASC_NODE": 1.8349, "ARG_OF_PERICENTER": 78.6886, "MEAN_ANOMALY": 281.4551, "EPHEMERIS_TYPE": 0, "CLASSIFICATION_TYPE": "U", "NORAD_CAT_ID": 36605, "ELEMENT_SET_NO": 999, "REV_AT_EPOCH": 85983, "BSTAR": 3.9682032e-05, "MEAN_MOTION_DOT": 7.67e-06, "MEAN_MOTION_DDOT": 0}, "tle": {"line1": "1 36605U 10030A   25356.59889849  .00000767  00000+0  39682-4 0  9996", "line2": "2 36605  97.4444   1.8349 0001799  78.6886 281.4551 15.19158129859839"}}, "geometry": {"type": "Point", "coordinates": [1.1329289981759447, 7.32378175152488]}}, {"type": "Feature", "properties": {"norad_id": 36795, "name": "CARTOSAT-2B", "group": "resource", "lat": 18.165114486587797, "lon": 42.99252976910199, "alt_km": 625.797239445641, "timestamp": "2025-12-22T20:43:45.499598+00:00", "meta": {"OBJECT_NAME": "CARTOSAT-2B", "OBJECT_ID": "2010-035A", "EPOCH": "2025-12-22T14:09:02.928672", "MEAN_MOTION": 14.78739922, "ECCENTRICITY": 0.00127573, "INCLINATION": 97.784, "RA_OF_ASC_NODE": 45.2998, "ARG_OF_PERICENTER": 47.4812, "MEAN_ANOMALY": 312.7474, "EPHEMERIS_TYPE": 0, "CLASSIFICATION_TYPE": "U", "NORAD_CAT_ID": 36795, "ELEMENT_SET_NO": 999, "REV_AT_EPOCH": 83375, "BSTAR": 0.00015085181, "MEAN_MOTION_DOT": 1.059e-05, "MEAN_MOTION_DDOT": 0}, "tle": {"line1": "1 36795U 10035A   25356.58961723  .00001059  00000+0  15085-3 0  9997", "line2": "2 36795  97.7840  45.2998 0012757  47.4812 312.7474 14.78739922833758"}}, "geometry": {"type": "Point", "coordinates": [42.99252976910199, 18.165114486587797]}}, {"type": "Feature", "properties": {"norad_id": 36834, "name": "YAOGAN-10", "group": "resource", "lat": -46.20830322925509, "lon": 24.94971354578958, "alt_km": 622.0304966415379, "timestamp": "2025-12-22T20:43:45.499608+00:00", "meta": {"OBJECT_NAME": "YAOGAN-10", "OBJECT_ID": "2010-038A", "EPOCH": "2025-12-22T15:08:08.521152", "MEAN_MOTION": 14.84640124, "ECCENTRICITY": 0.00013235, "INCLINATION": 97.9128, "RA_OF_ASC_NODE": 16.3767, "ARG_OF_PERICENTER": 78.6418, "MEAN_ANOMALY": 69.7612, "EPHEMERIS_TYPE": 0, "CLASSIFICATION_TYPE": "U", "NORAD_CAT_ID": 36834, "ELEMENT_SET_NO": 999, "REV_AT_EPOCH": 83100, "BSTAR": 0.00016547646, "MEAN_MOTION_DOT": 1.345e-05, "MEAN_MOTION_DDOT": 0}, "tle": {"line1": "1 36834U 10038A   25356.63065418  .00001345  00000+0  16548-3 0  9999", "line2": "2 36834  97.9128  16.3767 0001323  78.6418  69.7612 14.84640124831002"}}, "geometry": {"type": "Point", "coordinates": [24.94971354578958, -46.20830322925509]}}]}